{
    "links": {
        "self": "http://www.neowsapp.com/rest/v1/neo/3545553?api_key=iIulBulltgU6a56xZRHN4H3l9WmuAYTsLGpBGhQ2"
    },
    "id": "3545553",
    "neo_reference_id": "3545553",
    "name": "(2010 RS30)",
    "designation": "2010 RS30",
    "nasa_jpl_url": "http://ssd.jpl.nasa.gov/sbdb.cgi?sstr=3545553",
    "absolute_magnitude_h": 24.0,
    "estimated_diameter": {
        "kilometers": {
            "estimated_diameter_min": 0.0421264611,
            "estimated_diameter_max": 0.0941976306
        },
        "meters": {
            "estimated_diameter_min": 42.1264610556,
            "estimated_diameter_max": 94.1976305719
        },
        "miles": {
            "estimated_diameter_min": 0.0261761612,
            "estimated_diameter_max": 0.0585316759
        },
        "feet": {
            "estimated_diameter_min": 138.2101784897,
            "estimated_diameter_max": 309.0473542854
        }
    },
    "is_potentially_hazardous_asteroid": false,
    "close_approach_data": [
        {
            "close_approach_date": "2008-08-30",
            "close_approach_date_full": "2008-Aug-30 06:45",
            "epoch_date_close_approach": 1220078700000,
            "relative_velocity": {
                "kilometers_per_second": "16.6135999371",
                "kilometers_per_hour": "59808.9597734315",
                "miles_per_hour": "37162.9616992191"
            },
            "miss_distance": {
                "astronomical": "0.4435509846",
                "lunar": "172.5413330094",
                "kilometers": "66354282.532562802",
                "miles": "41230639.2755865876"
            },
            "orbiting_body": "Earth"
        },
        {
            "close_approach_date": "2010-08-16",
            "close_approach_date_full": "2010-Aug-16 20:31",
            "epoch_date_close_approach": 1281990660000,
            "relative_velocity": {
                "kilometers_per_second": "7.1308441272",
                "kilometers_per_hour": "25671.0388580808",
                "miles_per_hour": "15950.9852282336"
            },
            "miss_distance": {
                "astronomical": "0.1342461067",
                "lunar": "52.2217355063",
                "kilometers": "20082931.618112729",
                "miles": "12478955.0506605002"
            },
            "orbiting_body": "Earth"
        },
        {
            "close_approach_date": "2012-06-16",
            "close_approach_date_full": "2012-Jun-16 04:24",
            "epoch_date_close_approach": 1339820640000,
            "relative_velocity": {
                "kilometers_per_second": "13.8587486479",
                "kilometers_per_hour": "49891.4951324976",
                "miles_per_hour": "31000.6348505233"
            },
            "miss_distance": {
                "astronomical": "0.473588316",
                "lunar": "184.225854924",
                "kilometers": "70847803.33048692",
                "miles": "44022783.625962696"
            },
            "orbiting_body": "Earth"
        }
    ],
    "orbital_data": {
        "orbit_id": "9",
        "orbit_determination_date": "2017-04-06 08:56:51",
        "first_observation_date": "2010-09-04",
        "last_observation_date": "2010-09-15",
        "data_arc_in_days": 11,
        "observations_used": 37,
        "orbit_uncertainty": "8",
        "minimum_orbit_intersection": ".133595",
        "jupiter_tisserand_invariant": "4.375",
        "epoch_osculation": "2455446.5",
        "eccentricity": ".3013714449176138",
        "semi_major_axis": "1.551036087640563",
        "inclination": "11.43510347351964",
        "ascending_node_longitude": "166.2305403247979",
        "orbital_period": "705.5556609528905",
        "perihelion_distance": "1.083598100788964",
        "perihelion_argument": "127.2537803852074",
        "aphelion_distance": "2.018474074492163",
        "perihelion_time": "2455393.977163749027",
        "mean_anomaly": "26.79904945389244",
        "mean_motion": ".5102361442523199",
        "equinox": "J2000",
        "orbit_class": {
            "orbit_class_type": "AMO",
            "orbit_class_description": "Near-Earth asteroid orbits similar to that of 1221 Amor",
            "orbit_class_range": "1.017 AU < q (perihelion) < 1.3 AU"
        }
    },
    "is_sentry_object": false
}